EUTELSAT 7A             
1 28187U 04008A   25203.74037847  .00000090  00000+0  00000+0 0  9997
2 28187   4.9898  75.9630 0001229  79.5405 272.5798  1.00285347 78274
EUTELSAT 174A           
1 28924U 05052A   25203.58854480 -.00000001  00000+0  00000+0 0  9991
2 28924   3.3808  80.6561 0005909  44.4235 201.3291  1.00272484 49021
EUTELSAT HOTBIRD 13E    
1 28946U 06007B   25203.47687066 -.00000175  00000+0  00000+0 0  9990
2 28946   1.2174  89.5715 0006403 183.2174 170.2092  0.98118234 71005
EUTELSAT HOTBIRD 13B    
1 29270U 06032A   25204.12197618  .00000146  00000+0  00000+0 0  9998
2 29270   0.8085  85.9333 0003782  36.7550 255.4162  1.00268263 69569
EUTELSAT HOTBIRD 13C    
1 33459U 08065A   25203.40880733 -.00000109  00000+0  00000+0 0  9997
2 33459   2.0992  83.1565 0003110  48.2304 303.6587  1.00271555 44031
EUTELSAT 36B            
1 36101U 09065A   25204.20653926  .00000104  00000+0  00000+0 0  9990
2 36101   0.0508 356.7592 0005504 127.2937 301.9450  1.00271193 57512
EUTELSAT KA-SAT 9A      
1 37258U 10069A   25203.55589517  .00000054  00000+0  00000+0 0  9995
2 37258   0.0647 301.1730 0003516 190.5309  17.9478  1.00268961 40701
EUTELSAT 7 WEST A       
1 37816U 11051A   25203.76681193 -.00000068  00000+0  00000+0 0  9999
2 37816   0.0612 352.6768 0004636 147.7730  69.0244  1.00271237 50666
